{
  "type": "FeatureCollection",
  "features": [
    {
      "type": "Feature",
      "properties": {
        "norad_id": 50032,
        "name": "COSMOS 1408 DEB",
        "group": "cosmos-1408-debris",
        "lat": 12.794210871973393,
        "lon": -118.0224624895433,
        "alt_km": 426.0572583162457,
        "timestamp": "2025-12-07T16:44:04.181711+00:00",
        "meta_object_name": "COSMOS 1408 DEB",
        "meta_object_id": "1982-092RU",
        "meta_epoch": "2025-12-06T16:42:22.156992",
        "meta_mean_motion": 15.45602595,
        "meta_eccentricity": 0.00147713,
        "meta_inclination": 82.5648,
        "meta_ra_of_asc_node": 64.7028,
        "meta_arg_of_pericenter": 232.1083,
        "meta_mean_anomaly": 127.8831,
        "meta_ephemeris_type": 0,
        "meta_classification_type": "U",
        "meta_norad_cat_id": 50032,
        "meta_element_set_no": 999,
        "meta_rev_at_epoch": 22510,
        "meta_bstar": 0.00017656769,
        "meta_mean_motion_dot": 8.568e-05,
        "meta_mean_motion_ddot": 0,
        "tle_line1": "1 50032U 82092RU  25340.69608978  .00008568  00000+0  17657-3 0  9993",
        "tle_line2": "2 50032  82.5648  64.7028 0014771 232.1083 127.8831 15.45602595225103"
      },
      "geometry": {
        "type": "Point",
        "coordinates": [
          -118.0224624895433,
          12.794210871973393
        ]
      }
    },
    {
      "type": "Feature",
      "properties": {
        "norad_id": 50058,
        "name": "COSMOS 1408 DEB",
        "group": "cosmos-1408-debris",
        "lat": 38.09312776661439,
        "lon": 80.45436666689862,
        "alt_km": 372.0635254652643,
        "timestamp": "2025-12-07T16:44:04.181732+00:00",
        "meta_object_name": "COSMOS 1408 DEB",
        "meta_object_id": "1982-092SW",
        "meta_epoch": "2025-12-06T17:31:54.040512",
        "meta_mean_motion": 15.6357903,
        "meta_eccentricity": 0.00163043,
        "meta_inclination": 82.6135,
        "meta_ra_of_asc_node": 75.6285,
        "meta_arg_of_pericenter": 120.1314,
        "meta_mean_anomaly": 240.1563,
        "meta_ephemeris_type": 0,
        "meta_classification_type": "U",
        "meta_norad_cat_id": 50058,
        "meta_element_set_no": 999,
        "meta_rev_at_epoch": 22710,
        "meta_bstar": 0.00048985664,
        "meta_mean_motion_dot": 0.00045915,
        "meta_mean_motion_ddot": 0,
        "tle_line1": "1 50058U 82092SW  25340.73048658  .00045915  00000+0  48986-3 0  9995",
        "tle_line2": "2 50058  82.6135  75.6285 0016304 120.1314 240.1563 15.63579030227106"
      },
      "geometry": {
        "type": "Point",
        "coordinates": [
          80.45436666689862,
          38.09312776661439
        ]
      }
    },
    {
      "type": "Feature",
      "properties": {
        "norad_id": 50404,
        "name": "COSMOS 1408 DEB",
        "group": "cosmos-1408-debris",
        "lat": -12.021049536273113,
        "lon": -141.4800762239835,
        "alt_km": 610.765321510622,
        "timestamp": "2025-12-07T16:44:04.181746+00:00",
        "meta_object_name": "COSMOS 1408 DEB",
        "meta_object_id": "1982-092ADS",
        "meta_epoch": "2025-12-06T16:58:30.659520",
        "meta_mean_motion": 15.1257011,
        "meta_eccentricity": 0.01743283,
        "meta_inclination": 82.2044,
        "meta_ra_of_asc_node": 221.2034,
        "meta_arg_of_pericenter": 219.7474,
        "meta_mean_anomaly": 139.0879,
        "meta_ephemeris_type": 0,
        "meta_classification_type": "U",
        "meta_norad_cat_id": 50404,
        "meta_element_set_no": 999,
        "meta_rev_at_epoch": 21102,
        "meta_bstar": 0.0044212021,
        "meta_mean_motion_dot": 0.00113453,
        "meta_mean_motion_ddot": 0,
        "tle_line1": "1 50404U 82092ADS 25340.70729930  .00113453  00000+0  44212-2 0  9996",
        "tle_line2": "2 50404  82.2044 221.2034 0174328 219.7474 139.0879 15.12570110211024"
      },
      "geometry": {
        "type": "Point",
        "coordinates": [
          -141.4800762239835,
          -12.021049536273113
        ]
      }
    },
    {
      "type": "Feature",
      "properties": {
        "norad_id": 50621,
        "name": "COSMOS 1408 DEB",
        "group": "cosmos-1408-debris",
        "lat": -9.544472131092352,
        "lon": -99.3133686307041,
        "alt_km": 384.22402316107036,
        "timestamp": "2025-12-07T16:44:04.181758+00:00",
        "meta_object_name": "COSMOS 1408 DEB",
        "meta_object_id": "1982-092ALR",
        "meta_epoch": "2025-12-06T05:58:21.140256",
        "meta_mean_motion": 15.56160395,
        "meta_eccentricity": 0.00287722,
        "meta_inclination": 82.5723,
        "meta_ra_of_asc_node": 80.9361,
        "meta_arg_of_pericenter": 176.4358,
        "meta_mean_anomaly": 183.7108,
        "meta_ephemeris_type": 0,
        "meta_classification_type": "U",
        "meta_norad_cat_id": 50621,
        "meta_element_set_no": 999,
        "meta_rev_at_epoch": 22149,
        "meta_bstar": 0.00059401028,
        "meta_mean_motion_dot": 0.00042512,
        "meta_mean_motion_ddot": 0,
        "tle_line1": "1 50621U 82092ALR 25340.24885579  .00042512  00000+0  59401-3 0  9992",
        "tle_line2": "2 50621  82.5723  80.9361 0028772 176.4358 183.7108 15.56160395221497"
      },
      "geometry": {
        "type": "Point",
        "coordinates": [
          -99.3133686307041,
          -9.544472131092352
        ]
      }
    }
  ]
}